{
  "type": "FeatureCollection",
  "features": [
    {
      "type": "Feature",
      "properties": {
        "norad_id": 36540,
        "name": "COSMOS 2251 DEB",
        "group": "cosmos-2251-debris",
        "lat": -48.30559116227905,
        "lon": 151.18541131021271,
        "alt_km": 700.7025558548585,
        "timestamp": "2025-12-18T07:01:54.987059+00:00",
        "meta_object_name": "COSMOS 2251 DEB",
        "meta_object_id": "1993-036BDA",
        "meta_epoch": "2025-12-17T13:09:26.426592",
        "meta_mean_motion": 14.58526935,
        "meta_eccentricity": 0.00148115,
        "meta_inclination": 74.0276,
        "meta_ra_of_asc_node": 171.3586,
        "meta_arg_of_pericenter": 241.3475,
        "meta_mean_anomaly": 118.62,
        "meta_ephemeris_type": 0,
        "meta_classification_type": "U",
        "meta_norad_cat_id": 36540,
        "meta_element_set_no": 999,
        "meta_rev_at_epoch": 86080,
        "meta_bstar": 0.0008456948,
        "meta_mean_motion_dot": 3.909e-05,
        "meta_mean_motion_ddot": 0,
        "tle_line1": "1 36540U 93036BDA 25351.54822253  .00003909  00000+0  84569-3 0  9991",
        "tle_line2": "2 36540  74.0276 171.3586 0014811 241.3475 118.6200 14.58526935860806"
      },
      "geometry": {
        "type": "Point",
        "coordinates": [
          151.18541131021271,
          -48.30559116227905
        ]
      }
    },
    {
      "type": "Feature",
      "properties": {
        "norad_id": 36550,
        "name": "COSMOS 2251 DEB",
        "group": "cosmos-2251-debris",
        "lat": -59.77177528646881,
        "lon": 32.104313368442455,
        "alt_km": 752.8778447457953,
        "timestamp": "2025-12-18T07:01:54.987069+00:00",
        "meta_object_name": "COSMOS 2251 DEB",
        "meta_object_id": "1993-036BDL",
        "meta_epoch": "2025-12-16T20:14:40.612704",
        "meta_mean_motion": 14.27212033,
        "meta_eccentricity": 0.00781743,
        "meta_inclination": 74.0437,
        "meta_ra_of_asc_node": 185.3179,
        "meta_arg_of_pericenter": 235.0722,
        "meta_mean_anomaly": 124.3066,
        "meta_ephemeris_type": 0,
        "meta_classification_type": "U",
        "meta_norad_cat_id": 36550,
        "meta_element_set_no": 999,
        "meta_rev_at_epoch": 84654,
        "meta_bstar": 0.00049931577,
        "meta_mean_motion_dot": 1.234e-05,
        "meta_mean_motion_ddot": 0,
        "tle_line1": "1 36550U 93036BDL 25350.84352561  .00001234  00000+0  49932-3 0  9998",
        "tle_line2": "2 36550  74.0437 185.3179 0078174 235.0722 124.3066 14.27212033846542"
      },
      "geometry": {
        "type": "Point",
        "coordinates": [
          32.104313368442455,
          -59.77177528646881
        ]
      }
    },
    {
      "type": "Feature",
      "properties": {
        "norad_id": 36551,
        "name": "COSMOS 2251 DEB",
        "group": "cosmos-2251-debris",
        "lat": 7.381429379026511,
        "lon": 5.414376551446603,
        "alt_km": 540.4805866193283,
        "timestamp": "2025-12-18T07:01:54.987079+00:00",
        "meta_object_name": "COSMOS 2251 DEB",
        "meta_object_id": "1993-036BDM",
        "meta_epoch": "2025-12-17T00:38:25.172736",
        "meta_mean_motion": 15.02702962,
        "meta_eccentricity": 0.00507763,
        "meta_inclination": 73.887,
        "meta_ra_of_asc_node": 5.8751,
        "meta_arg_of_pericenter": 314.3814,
        "meta_mean_anomaly": 45.322,
        "meta_ephemeris_type": 0,
        "meta_classification_type": "U",
        "meta_norad_cat_id": 36551,
        "meta_element_set_no": 999,
        "meta_rev_at_epoch": 66996,
        "meta_bstar": 0.00093894132,
        "meta_mean_motion_dot": 0.00012873,
        "meta_mean_motion_ddot": 0,
        "tle_line1": "1 36551U 93036BDM 25351.02668024  .00012873  00000+0  93894-3 0  9991",
        "tle_line2": "2 36551  73.8870   5.8751 0050776 314.3814  45.3220 15.02702962669966"
      },
      "geometry": {
        "type": "Point",
        "coordinates": [
          5.414376551446603,
          7.381429379026511
        ]
      }
    },
    {
      "type": "Feature",
      "properties": {
        "norad_id": 36557,
        "name": "COSMOS 2251 DEB",
        "group": "cosmos-2251-debris",
        "lat": -42.76124841073571,
        "lon": -49.28759989288555,
        "alt_km": 629.130376147029,
        "timestamp": "2025-12-18T07:01:54.987089+00:00",
        "meta_object_name": "COSMOS 2251 DEB",
        "meta_object_id": "1993-036BDT",
        "meta_epoch": "2025-12-16T15:02:26.530080",
        "meta_mean_motion": 14.78433531,
        "meta_eccentricity": 0.00216791,
        "meta_inclination": 73.9792,
        "meta_ra_of_asc_node": 118.5873,
        "meta_arg_of_pericenter": 270.9403,
        "meta_mean_anomaly": 88.9288,
        "meta_ephemeris_type": 0,
        "meta_classification_type": "U",
        "meta_norad_cat_id": 36557,
        "meta_element_set_no": 999,
        "meta_rev_at_epoch": 33954,
        "meta_bstar": 0.0025552637,
        "meta_mean_motion_dot": 0.00018721,
        "meta_mean_motion_ddot": 0,
        "tle_line1": "1 36557U 93036BDT 25350.62669595  .00018721  00000+0  25553-2 0  9990",
        "tle_line2": "2 36557  73.9792 118.5873 0021679 270.9403  88.9288 14.78433531339544"
      },
      "geometry": {
        "type": "Point",
        "coordinates": [
          -49.28759989288555,
          -42.76124841073571
        ]
      }
    },
    {
      "type": "Feature",
      "properties": {
        "norad_id": 36558,
        "name": "COSMOS 2251 DEB",
        "group": "cosmos-2251-debris",
        "lat": 59.906319746643724,
        "lon": 173.6170737581345,
        "alt_km": 710.7809236801822,
        "timestamp": "2025-12-18T07:01:54.987098+00:00",
        "meta_object_name": "COSMOS 2251 DEB",
        "meta_object_id": "1993-036BDU",
        "meta_epoch": "2025-12-17T02:41:33.012960",
        "meta_mean_motion": 14.55391753,
        "meta_eccentricity": 0.00127941,
        "meta_inclination": 74.0416,
        "meta_ra_of_asc_node": 146.2642,
        "meta_arg_of_pericenter": 234.8109,
        "meta_mean_anomaly": 125.1857,
        "meta_ephemeris_type": 0,
        "meta_classification_type": "U",
        "meta_norad_cat_id": 36558,
        "meta_element_set_no": 999,
        "meta_rev_at_epoch": 85332,
        "meta_bstar": 0.0007067154,
        "meta_mean_motion_dot": 3.045e-05,
        "meta_mean_motion_ddot": 0,
        "tle_line1": "1 36558U 93036BDU 25351.11218765  .00003045  00000+0  70672-3 0  9991",
        "tle_line2": "2 36558  74.0416 146.2642 0012794 234.8109 125.1857 14.55391753853329"
      },
      "geometry": {
        "type": "Point",
        "coordinates": [
          173.6170737581345,
          59.906319746643724
        ]
      }
    },
    {
      "type": "Feature",
      "properties": {
        "norad_id": 36559,
        "name": "COSMOS 2251 DEB",
        "group": "cosmos-2251-debris",
        "lat": 38.9178393720821,
        "lon": 167.04659687684233,
        "alt_km": 959.6929572252411,
        "timestamp": "2025-12-18T07:01:54.987109+00:00",
        "meta_object_name": "COSMOS 2251 DEB",
        "meta_object_id": "1993-036BDV",
        "meta_epoch": "2025-12-16T01:02:38.774976",
        "meta_mean_motion": 13.95226172,
        "meta_eccentricity": 0.0260446,
        "meta_inclination": 74.1323,
        "meta_ra_of_asc_node": 4.1653,
        "meta_arg_of_pericenter": 36.0043,
        "meta_mean_anomaly": 325.8321,
        "meta_ephemeris_type": 0,
        "meta_classification_type": "U",
        "meta_norad_cat_id": 36559,
        "meta_element_set_no": 999,
        "meta_rev_at_epoch": 81140,
        "meta_bstar": 0.0020581095,
        "meta_mean_motion_dot": 3.672e-05,
        "meta_mean_motion_ddot": 0,
        "tle_line1": "1 36559U 93036BDV 25350.04350434  .00003672  00000+0  20581-2 0  9992",
        "tle_line2": "2 36559  74.1323   4.1653 0260446  36.0043 325.8321 13.95226172811403"
      },
      "geometry": {
        "type": "Point",
        "coordinates": [
          167.04659687684233,
          38.9178393720821
        ]
      }
    },
    {
      "type": "Feature",
      "properties": {
        "norad_id": 36614,
        "name": "COSMOS 2251 DEB",
        "group": "cosmos-2251-debris",
        "lat": 0.06728487719226499,
        "lon": -16.03995097818502,
        "alt_km": 687.5100551174373,
        "timestamp": "2025-12-18T07:01:54.987118+00:00",
        "meta_object_name": "COSMOS 2251 DEB",
        "meta_object_id": "1993-036BEC",
        "meta_epoch": "2025-12-11T06:30:21.400992",
        "meta_mean_motion": 14.60233542,
        "meta_eccentricity": 0.00161993,
        "meta_inclination": 74.0218,
        "meta_ra_of_asc_node": 177.391,
        "meta_arg_of_pericenter": 247.2616,
        "meta_mean_anomaly": 112.6838,
        "meta_ephemeris_type": 0,
        "meta_classification_type": "U",
        "meta_norad_cat_id": 36614,
        "meta_element_set_no": 999,
        "meta_rev_at_epoch": 65591,
        "meta_bstar": 0.0024222077,
        "meta_mean_motion_dot": 0.00011696,
        "meta_mean_motion_ddot": 0,
        "tle_line1": "1 36614U 93036BEC 25345.27108103  .00011696  00000+0  24222-2 0  9998",
        "tle_line2": "2 36614  74.0218 177.3910 0016199 247.2616 112.6838 14.60233542655911"
      },
      "geometry": {
        "type": "Point",
        "coordinates": [
          -16.03995097818502,
          0.06728487719226499
        ]
      }
    }
  ]
}